[{"OBJECT_NAME":"NUSAT-50 (NANCY ROMAN)","OBJECT_ID":"2024-149AB","EPOCH":"2026-03-09T19:15:16.765632","MEAN_MOTION":15.29713355,"ECCENTRICITY":0.00025229,"INCLINATION":97.3817,"RA_OF_ASC_NODE":150.7693,"ARG_OF_PERICENTER":238.0469,"MEAN_ANOMALY":122.0527,"EPHEMERIS_TYPE":0,"CLASSIFICATION_TYPE":"U","NORAD_CAT_ID":60493,"ELEMENT_SET_NO":999,"REV_AT_EPOCH":8693,"BSTAR":0.0004225155,"MEAN_MOTION_DOT":0.00012094,"MEAN_MOTION_DDOT":0},{"OBJECT_NAME":"STARLINK-36490","OBJECT_ID":"2026-002A","EPOCH":"2026-03-09T01:04:15.539520","MEAN_MOTION":15.27570065,"ECCENTRICITY":0.00022249,"INCLINATION":43.0048,"RA_OF_ASC_NODE":328.6178,"ARG_OF_PERICENTER":263.5738,"MEAN_ANOMALY":96.4861,"EPHEMERIS_TYPE":0,"CLASSIFICATION_TYPE":"U","NORAD_CAT_ID":67305,"ELEMENT_SET_NO":999,"REV_AT_EPOCH":1104,"BSTAR":0.0011108884,"MEAN_MOTION_DOT":0.00030425,"MEAN_MOTION_DDOT":0}]
