NUSAT-50 (NANCY ROMAN)  
1 60493U 24149AB  26068.80227738  .00012094  00000+0  42252-3 0  9994
2 60493  97.3817 150.7693 0002523 238.0469 122.0527 15.29713355 86930
STARLINK-36490          
1 67305U 26002A   26068.04462430  .00030425  00000+0  11109-2 0  9993
2 67305  43.0048 328.6178 0002224 263.5738  96.4861 15.27570065 11049
